     2.10           N: GPS NAV DATA                         RINEX VERSION / TYPE
teqc  2013Mar15     gpsops              20140521 00:23:23UTCPGM / RUN BY / DATE
Linux 2.4.21-27.ELsmp|Opteron|gcc -static|Linux x86_64|=+   COMMENT
GLPS                                    MARKER NAME         COMMENT
42005M002                               MARKER NUMBER       COMMENT
-33801.4662 -6377516.5323 -82154.3508                       COMMENT
                                                            COMMENT
This data is provided as a public service by NASA/JPL.      COMMENT
No warranty is expressed or implied regarding suitability   COMMENT
for use.  For further information, contact:                 COMMENT
Dave Stowers, NASA/JPL m/s 238-600                          COMMENT
4800 Oak Grove Drive, Pasadena CA 91109 USA                 COMMENT
                                                            END OF HEADER
 2 14  5 20  9 59 44.0 4.963697865605D-04 2.160049916711D-12 0.000000000000D+00
    3.000000000000D+00-6.781250000000D+00 5.050924677001D-09 3.965836046476D-01
   -4.153698682785D-07 1.354986999650D-02 1.111440360546D-05 5.153610137939D+03
    2.087840000000D+05-9.872019290924D-08-1.599425032347D+00 2.868473529816D-07
    9.390711552144D-01 1.577187500000D+02-2.425277047027D+00-8.361419715265D-09
    3.042983895351D-10 0.000000000000D+00 1.793000000000D+03 0.000000000000D+00
    2.000000000000D+00 0.000000000000D+00-2.048909664154D-08 3.000000000000D+00
    2.052300000000D+05 4.000000000000D+00
12 14  5 20 12  0  0.0 2.061408013105D-04 2.501110429876D-12 0.000000000000D+00
    3.700000000000D+01 6.250000000000D+00 4.171602335410D-09-2.411355241253D-01
    2.682209014893D-07 5.137747735716D-03 3.799796104431D-06 5.153620527267D+03
    2.160000000000D+05 1.061707735062D-07 2.653581533191D+00 7.450580596924D-09
    9.876389338687D-01 3.190312500000D+02 4.328952194806D-01-8.219628094789D-09
    4.285892810353D-11 0.000000000000D+00 1.793000000000D+03 0.000000000000D+00
    2.000000000000D+00 0.000000000000D+00-1.210719347000D-08 3.700000000000D+01
    2.088000000000D+05 4.000000000000D+00
14 14  5 20 12  0  0.0 1.712022349238D-04-3.410605131648D-12 0.000000000000D+00
    5.900000000000D+01 4.593750000000D+00 4.435541900981D-09 2.888151600936D+00
    2.328306436539D-07 7.495327969082D-03 8.726492524147D-06 5.153660171509D+03
    2.160000000000D+05 6.705522537231D-08 5.939901476967D-01-1.620501279831D-07
    9.704767747902D-01 2.126250000000D+02-2.000276456183D+00-7.875685196758D-09
   -5.135928217740D-10 0.000000000000D+00 1.793000000000D+03 0.000000000000D+00
    2.000000000000D+00 0.000000000000D+00-9.313225746155D-09 5.900000000000D+01
    2.088000000000D+05 4.000000000000D+00
18 14  5 20 12  0  0.0 3.203963860869D-04 2.387423592154D-12 0.000000000000D+00
    7.600000000000D+01 3.309375000000D+01 5.705951961517D-09-1.722614948524D+00
    1.873821020126D-06 1.527459337376D-02 5.858018994331D-06 5.153686929703D+03
    2.160000000000D+05 3.110617399216D-07-5.366610857912D-01 3.911554813385D-08
    9.259264339697D-01 2.418125000000D+02-2.039141696928D+00-8.475353032473D-09
    2.950122884460D-10 0.000000000000D+00 1.793000000000D+03 0.000000000000D+00
    2.000000000000D+00 0.000000000000D+00-1.117587089539D-08 7.600000000000D+01
    2.088000000000D+05 4.000000000000D+00
21 14  5 20 12  0  0.0-3.621745854616D-04-2.273736754432D-12 0.000000000000D+00
    1.340000000000D+02-6.406250000000D+00 5.185573142793D-09-7.573779630093D-01
    9.313225746155D-09 2.150230214465D-02 1.119263470173D-05 5.153757492065D+03
    2.160000000000D+05-7.450580596924D-08-1.582098136989D+00 4.284083843231D-07
    9.320076761693D-01 1.527812500000D+02-2.025384472364D+00-8.617858968417D-09
    4.150172871359D-10 0.000000000000D+00 1.793000000000D+03 0.000000000000D+00
    2.000000000000D+00 0.000000000000D+00-1.117587089539D-08 1.340000000000D+02
    2.088000000000D+05 4.000000000000D+00
22 14  5 20 12  0  0.0 2.356008626521D-04 2.955857780762D-12 0.000000000000D+00
    8.000000000000D+00 2.878125000000D+01 5.777026350622D-09-2.279994714017D+00
    1.357868313789D-06 7.219503400847D-03 6.206333637238D-06 5.153719871521D+03
    2.160000000000D+05 1.322478055954D-07-5.347630490618D-01 5.587935447693D-09
    9.237022264882D-01 2.364062500000D+02-2.059582125222D+00-8.578571617656D-09
    2.892977646988D-10 0.000000000000D+00 1.793000000000D+03 0.000000000000D+00
    2.000000000000D+00 0.000000000000D+00-1.722946763039D-08 8.000000000000D+00
    2.088000000000D+05 4.000000000000D+00
24 14  5 20 12  0  0.0-2.866890281439D-05-5.684341886081D-13 0.000000000000D+00
    7.300000000000D+01 6.421875000000D+01 4.578404994660D-09 1.016888346784D+00
    3.464519977570D-06 2.082357183099D-03 8.713454008102D-06 5.153736148834D+03
    2.160000000000D+05 3.725290298462D-08 1.555886812862D+00 3.166496753693D-08
    9.566682310604D-01 2.069062500000D+02 3.469206738157D-01-8.160339910912D-09
   -1.207193141583D-10 0.000000000000D+00 1.793000000000D+03 0.000000000000D+00
    2.800000000000D+00 0.000000000000D+00 2.793967723846D-09 7.300000000000D+01
    2.088000000000D+05 4.000000000000D+00
25 14  5 20 12  0  0.0 2.407422289252D-05 5.684341886081D-13 0.000000000000D+00
    7.300000000000D+01 1.309375000000D+01 4.338037839546D-09-1.010091077868D+00
    6.165355443954D-07 3.612251486629D-03 3.773719072342D-06 5.153608835220D+03
    2.160000000000D+05 1.229345798492D-07 2.611243046971D+00-1.490116119385D-08
    9.763277054078D-01 3.162187500000D+02 6.764619700877D-01-8.280344909602D-09
    3.000124967247D-11 0.000000000000D+00 1.793000000000D+03 0.000000000000D+00
    2.000000000000D+00 0.000000000000D+00 5.122274160385D-09 7.300000000000D+01
    2.088000000000D+05 4.000000000000D+00
29 14  5 20 12  0  0.0 5.338443443179D-04 2.728484105319D-12 0.000000000000D+00
    5.500000000000D+01-9.834375000000D+01 4.210532528438D-09-5.568055218707D-01
   -5.057081580162D-06 1.578330411576D-03 8.007511496544D-06 5.153708833694D+03
    2.160000000000D+05-8.381903171539D-08-2.570430248257D+00-3.725290298462D-09
    9.694870112312D-01 2.298750000000D+02-8.798156247666D-01-8.020691236841D-09
   -1.335769925893D-10 0.000000000000D+00 1.793000000000D+03 0.000000000000D+00
    2.000000000000D+00 0.000000000000D+00-9.778887033463D-09 5.500000000000D+01
    2.088000000000D+05 4.000000000000D+00
31 14  5 20 12  0  0.0 3.342186100781D-04-1.136868377216D-13 0.000000000000D+00
    6.500000000000D+01 6.431250000000D+01 4.036953869618D-09 8.655247730381D-02
    3.252178430557D-06 7.986854412593D-03 9.702518582344D-06 5.153555862427D+03
    2.160000000000D+05 4.284083843231D-08 1.596568676020D+00-1.043081283569D-07
    9.782333580888D-01 2.038750000000D+02-6.353242060662D-01-8.009262189347D-09
   -8.321775206769D-11 0.000000000000D+00 1.793000000000D+03 0.000000000000D+00
    2.000000000000D+00 0.000000000000D+00-1.303851604462D-08 6.500000000000D+01
    2.093100000000D+05 4.000000000000D+00
27 14  5 20 12  0  0.0-1.542409881949D-05 1.932676241267D-12 0.000000000000D+00
    5.400000000000D+01-9.218750000000D+01 4.406612124511D-09 3.030358074075D+00
   -4.680827260017D-06 1.228929031640D-03 6.793066859245D-06 5.153677154541D+03
    2.160000000000D+05 5.587935447693D-08-2.624966665381D+00 2.421438694000D-08
    9.635220285943D-01 2.506562500000D+02 1.383655510006D-01-8.203198839016D-09
   -8.214627886510D-11 0.000000000000D+00 1.793000000000D+03 0.000000000000D+00
    2.000000000000D+00 0.000000000000D+00 1.862645149231D-09 5.400000000000D+01
    2.118900000000D+05 4.000000000000D+00
14 14  5 20 14  0  0.0 1.711770892143D-04-3.410605131648D-12 0.000000000000D+00
    6.000000000000D+01 6.187500000000D+00 4.504830501415D-09-2.344908100617D+00
    3.557652235031D-07 7.496098754928D-03 8.445233106613D-06 5.153658550262D+03
    2.232000000000D+05 1.732259988785D-07 5.939321488466D-01 8.754432201385D-08
    9.704737158285D-01 2.198125000000D+02-2.000212399389D+00-7.911400970177D-09
   -2.985838657879D-10 0.000000000000D+00 1.793000000000D+03 0.000000000000D+00
    2.800000000000D+00 0.000000000000D+00-9.313225746155D-09 6.000000000000D+01
    2.160000000000D+05 4.000000000000D+00
18 14  5 20 14  0  0.0 3.204131498933D-04 2.387423592154D-12 0.000000000000D+00
    7.800000000000D+01 3.321875000000D+01 5.817742332320D-09-6.724222798070D-01
    2.032145857811D-06 1.527467858978D-02 6.327405571938D-06 5.153687273026D+03
    2.232000000000D+05-5.587935447693D-08-5.367233051600D-01 2.570450305939D-07
    9.259264427472D-01 2.433750000000D+02-2.039152916047D+00-8.908228206319D-09
    2.396528396456D-10 0.000000000000D+00 1.793000000000D+03 0.000000000000D+00
    2.000000000000D+00 0.000000000000D+00-1.117587089539D-08 7.800000000000D+01
    2.160000000000D+05 4.000000000000D+00
21 14  5 20 14  0  0.0-3.621904179454D-04-2.273736754432D-12 0.000000000000D+00
    1.350000000000D+02-8.687500000000D+00 5.097712340181D-09 2.927704451213D-01
   -3.613531589508D-07 2.150173950940D-02 1.092627644539D-05 5.153756586075D+03
    2.232000000000D+05-4.358589649200D-07-1.582159284039D+00 2.607703208923D-07
    9.320104761945D-01 1.597500000000D+02-2.025399476052D+00-8.541784371034D-09
    2.200091642648D-10 0.000000000000D+00 1.793000000000D+03 0.000000000000D+00
    2.800000000000D+00 0.000000000000D+00-1.117587089539D-08 1.350000000000D+02
    2.160000000000D+05 4.000000000000D+00
22 14  5 20 14  0  0.0 2.356227487326D-04 2.955857780762D-12 0.000000000000D+00
    9.000000000000D+00 3.212500000000D+01 5.762382883520D-09-1.229882110807D+00
    1.890584826469D-06 7.219776161946D-03 6.182119250298D-06 5.153719108582D+03
    2.232000000000D+05 1.117587089539D-07-5.348246964296D-01 1.527369022369D-07
    9.237038035139D-01 2.387500000000D+02-2.059532840975D+00-8.686790411117D-09
    2.453673633927D-10 0.000000000000D+00 1.793000000000D+03 0.000000000000D+00
    2.000000000000D+00 0.000000000000D+00-1.722946763039D-08 9.000000000000D+00
    2.160000000000D+05 4.000000000000D+00
